SENTINEL-6              
1 46984U 20086A   24054.14770134 -.00000032  00000+0  12468-3 0  9998
2 46984  66.0400  90.2089 0007845 270.6204  89.3912 12.80930982152217
